ONEWEB-0156             
1 48052U 21025L   25054.95149855 -.00000315  00000+0 -89759-3 0  9992
2 48052  87.8886  55.2746 0001801  84.2976 275.8358 13.13469968190795
ONEWEB-0161             
1 48053U 21025M   25054.92453395  .00000183  00000+0  46498-3 0  9991
2 48053  87.8888  55.2938 0001868  82.9142 277.2199 13.13468784190721
ONEWEB-0158             
1 48054U 21025N   25054.96262107 -.00000039  00000+0 -14099-3 0  9999
2 48054  87.8883  55.2699 0001705  89.1274 271.0050 13.13469537190855
ONEWEB-0157             
1 48055U 21025P   25055.51967274  .00000421  00000+0  11190-2 0  9990
2 48055  87.8884  55.1706 0001914  73.6430 286.4909 13.13469695190879
ONEWEB-0162             
1 48056U 21025Q   25054.94992732 -.00000269  00000+0 -77129-3 0  9991
2 48056  87.8884  55.2765 0001795  87.5285 272.6049 13.13469755190762
ONEWEB-0155             
1 48057U 21025R   25055.50380410  .00000079  00000+0  18178-3 0  9995
2 48057  87.8885  55.1804 0002009  85.4089 274.7269 13.13470331190988
ONEWEB-0149             
1 48058U 21025S   25055.52441416  .00000399  00000+0  10575-2 0  9999
2 48058  87.8886  55.1712 0001570  88.2874 271.8435 13.13471589190791
ONEWEB-0148             
1 48059U 21025T   25055.48951286 -.00000245  00000+0 -70613-3 0  9998
2 48059  87.8891  55.1979 0001248  74.2362 285.8905 13.13469006190903
ONEWEB-0160             
1 48060U 21025U   25055.04831966  .00000226  00000+0  58267-3 0  9992
2 48060  87.8886  55.2822 0002181 111.6226 248.5136 13.13468945190799
ONEWEB-0163             
1 48061U 21025V   25055.49110284 -.00000198  00000+0 -57829-3 0  9998
2 48061  87.8885  55.1788 0001852  78.7413 281.3925 13.13469965190989
ONEWEB-0159             
1 48062U 21025W   25055.47999241 -.00000229  00000+0 -66291-3 0  9993
2 48062  87.8885  55.1620 0001730  81.8374 278.2951 13.13469129190897
ONEWEB-0164             
1 48063U 21025X   25055.23400584 -.00000016  00000+0 -78807-4 0  9996
2 48063  87.8886  55.2223 0001987  89.2906 270.8450 13.13468435190853
ONEWEB-0167             
1 48064U 21025Y   25055.49226620 -.00000198  00000+0 -57818-3 0  9991
2 48064  87.8894  55.1889 0002458  68.9776 291.1616 13.13484503190868
ONEWEB-0166             
1 48065U 21025Z   25054.90390441  .00000364  00000+0  96199-3 0  9998
2 48065  87.8880  55.2771 0001650  86.4400 273.6917 13.13469863190868
ONEWEB-0151             
1 48066U 21025AA  25054.90549212  .00000373  00000+0  98717-3 0  9999
2 48066  87.8883  55.2963 0002016  87.5561 272.5799 13.13470061190804
ONEWEB-0170             
1 48067U 21025AB  25055.06577911  .00000321  00000+0  84350-3 0  9996
2 48067  87.8885  55.2685 0002316  95.6700 264.4693 13.13469193190780
ONEWEB-0168             
1 48068U 21025AC  25055.50856364  .00000174  00000+0  44239-3 0  9996
2 48068  87.8888  55.1572 0001858  85.5442 274.5899 13.13469943190850
ONEWEB-0173             
1 48069U 21025AD  25055.50062542 -.00000024  00000+0 -10061-3 0  9996
2 48069  87.8887  55.1677 0002128  77.3659 282.7708 13.13469613191097
ONEWEB-0171             
1 48070U 21025AE  25055.53713212  .00000124  00000+0  30585-3 0  9990
2 48070  87.8889  55.1974 0001973  87.3357 272.7998 13.13469474190919
ONEWEB-0172             
1 48071U 21025AF  25055.51650142  .00000341  00000+0  89761-3 0  9992
2 48071  87.8887  55.1678 0001979  84.3105 275.8249 13.13469542191801
ONEWEB-0174             
1 48072U 21025AG  25055.49904206 -.00000065  00000+0 -21289-3 0  9999
2 48072  87.8888  55.1854 0001761  85.7487 274.3843 13.13470367191122
ONEWEB-0175             
1 48073U 21025AH  25055.22288589  .00000315  00000+0  82789-3 0  9998
2 48073  87.8882  55.2140 0002221  91.0917 269.0467 13.13470773190747
ONEWEB-0177             
1 48074U 21025AJ  25054.93088013 -.00000040  00000+0 -14491-3 0  9998
2 48074  87.8883  55.2843 0001866  78.2440 281.8898 13.13468881190894
ONEWEB-0178             
1 48075U 21025AK  25054.94847792 -.00000286  00000+0 -81946-3 0  9998
2 48075  87.8891  55.3157 0001900  81.0123 279.1221 13.13468501190947
ONEWEB-0108             
1 48076U 21025AL  25055.51808666  .00000362  00000+0  95645-3 0  9994
2 48076  87.8882  55.1629 0001697  92.9943 267.1380 13.13469950190957
ONEWEB-0169             
1 48077U 21025AM  25054.94040136 -.00000200  00000+0 -58360-3 0  9997
2 48077  87.8886  55.2945 0001654  93.8552 266.2766 13.13469195189523
ONEWEB-0176             
1 48210U 21031A   25054.93095590 -.00000104  00000+0 -31604-3 0  9991
2 48210  87.9038  24.7878 0001909  83.6510 276.4837 13.14502979185484
ONEWEB-0184             
1 48211U 21031B   25054.90399911  .00000240  00000+0  61167-3 0  9999
2 48211  87.9032  24.7677 0002753  81.8360 278.3082 13.14501412185458
ONEWEB-0179             
1 48212U 21031C   25054.94998595 -.00000090  00000+0 -27822-3 0  9992
2 48212  87.9036  24.7708 0001838  80.1244 280.0093 13.14503221185502
ONEWEB-0180             
1 48213U 21031D   25054.90716176  .00000259  00000+0  66491-3 0  9992
2 48213  87.9034  24.7707 0002034  77.9956 282.1402 13.14504889185387
ONEWEB-0218             
1 48214U 21031E   25055.15771844 -.00000119  00000+0 -35526-3 0  9996
2 48214  87.9035  24.7221 0002839  74.8584 285.2860 13.14504530185572
ONEWEB-0209             
1 48215U 21031F   25055.45109842  .00000126  00000+0  30568-3 0  9990
2 48215  87.9039  24.7038 0001819  77.1629 282.9704 13.14502721185612
ONEWEB-0198             
1 48216U 21031G   25055.43523940  .00000322  00000+0  83362-3 0  9996
2 48216  87.9035  24.7096 0002151  75.2881 284.8487 13.14503482185706
ONEWEB-0189             
1 48217U 21031H   25054.91509385  .00000144  00000+0  35398-3 0  9994
2 48217  87.9035  24.7875 0002157  72.8288 287.3078 13.14502617185390
ONEWEB-0196             
1 48218U 21031J   25054.89289486  .00000201  00000+0  50755-3 0  9997
2 48218  87.9036  24.8006 0001951  81.9547 278.1804 13.14503377185398
ONEWEB-0183             
1 48219U 21031K   25055.47645910 -.00000157  00000+0 -45845-3 0  9997
2 48219  87.9037  24.6985 0001695  81.5716 278.5606 13.14504165185562
ONEWEB-0185             
1 48220U 21031L   25054.89368936  .00000213  00000+0  53914-3 0  9991
2 48220  87.9034  24.7845 0001772  74.7643 285.3683 13.14504640185419
ONEWEB-0187             
1 48221U 21031M   25054.93967751 -.00000222  00000+0 -63437-3 0  9990
2 48221  87.9036  24.8111 0001776  79.8277 280.3053 13.14502838185437
ONEWEB-0192             
1 48222U 21031N   25055.45267870  .00000118  00000+0  28355-3 0  9996
2 48222  87.9038  24.7071 0001943  80.8449 279.2901 13.14502416185423
ONEWEB-0219             
1 48223U 21031P   25054.89923727  .00000263  00000+0  67441-3 0  9994
2 48223  87.9037  24.7903 0001837  76.7592 283.3743 13.14501520185540
ONEWEB-0202             
1 48224U 21031Q   25054.88020558  .00000206  00000+0  52058-3 0  9999
2 48224  87.9034  24.8101 0002521  72.0116 288.1289 13.14502659185521
ONEWEB-0204             
1 48225U 21031R   25054.91429363  .00000174  00000+0  43600-3 0  9998
2 48225  87.9035  24.8157 0001528  86.1820 273.9484 13.14506284185424
ONEWEB-0205             
1 48226U 21031S   25054.88972904  .00000194  00000+0  48810-3 0  9999
2 48226  87.9034  24.7918 0001821  77.6041 282.5293 13.14503186185437
ONEWEB-0206             
1 48227U 21031T   25055.47170724 -.00000159  00000+0 -46353-3 0  9999
2 48227  87.9034  24.6592 0001818  80.4968 279.6367 13.14502623185479
ONEWEB-0182             
1 48228U 21031U   25054.93413136 -.00000213  00000+0 -60791-3 0  9990
2 48228  87.9040  24.8040 0001712  85.5162 274.6164 13.14503488185607
ONEWEB-0186             
1 48229U 21031V   25054.94522766 -.00000129  00000+0 -38273-3 0  9998
2 48229  87.9035  24.7639 0001885  79.3774 280.7568 13.14502781185562
ONEWEB-0181             
1 48230U 21031W   25054.92302322 -.00000024  00000+0 -99726-4 0  9997
2 48230  87.9037  24.8396 0001974  79.4028 280.7324 13.14502381185408
ONEWEB-0188             
1 48231U 21031X   25055.41779324  .00000090  00000+0  20878-3 0  9995
2 48231  87.9035  24.7339 0001836  81.2594 278.8743 13.14502685185375
ONEWEB-0220             
1 48232U 21031Y   25054.92460853 -.00000044  00000+0 -15201-3 0  9990
2 48232  87.9031  24.7819 0001759  73.7330 286.3993 13.14501880185572
ONEWEB-0165             
1 48233U 21031Z   25054.95315505 -.00000019  00000+0 -86783-4 0  9993
2 48233  87.9036  24.8093 0001938  78.2061 281.9286 13.14502711185539
ONEWEB-0199             
1 48234U 21031AA  25054.93729887 -.00000209  00000+0 -59704-3 0  9997
2 48234  87.9037  24.7781 0001913  88.0762 272.0587 13.14502624185431
ONEWEB-0203             
1 48235U 21031AB  25054.92778513 -.00000067  00000+0 -21395-3 0  9994
2 48235  87.9036  24.7825 0002210  89.7926 270.3457 13.14502703185447
ONEWEB-0197             
1 48236U 21031AC  25054.90318606  .00000267  00000+0  68513-3 0  9999
2 48236  87.9036  24.7982 0001493  84.5832 275.5468 13.14504228185356
ONEWEB-0194             
1 48237U 21031AD  25055.41462114 -.00000187  00000+0 -53857-3 0  9999
2 48237  87.9038  24.6916 0002097  85.7915 274.3454 13.14503773185593
ONEWEB-0193             
1 48238U 21031AE  25054.89764291  .00000258  00000+0  66012-3 0  9996
2 48238  87.9037  24.8023 0001997  82.8288 277.3069 13.14504732185471
ONEWEB-0191             
1 48239U 21031AF  25054.90875488  .00000198  00000+0  49890-3 0  9998
2 48239  87.9034  24.7762 0001974  81.9995 278.1359 13.14501826185335
ONEWEB-0195             
1 48240U 21031AG  25055.41858753  .00000078  00000+0  17469-3 0  9997
2 48240  87.9032  24.6729 0002119  73.0166 287.1196 13.14502854185387
ONEWEB-0201             
1 48241U 21031AH  25054.95078264 -.00000094  00000+0 -28803-3 0  9991
2 48241  87.9036  24.8086 0001874  78.5283 281.6057 13.14504031185550
ONEWEB-0207             
1 48242U 21031AJ  25055.15849649 -.00000154  00000+0 -45112-3 0  9997
2 48242  87.9037  24.7303 0001656  79.8952 280.2365 13.14501452185492
